H1 CPF 01  gfz 2022 08 26 12  7382 tandemx   
H2 1003001  6202 36605    2022 08 26 12 59 42 2022 08 31 00 00 42   120 1 1  0 0 0
H9
10 0 59819  72702.000000  0   -2955764.540    932980.737   6140962.375
10 0 59819  72822.000000  0   -3581377.112   1440584.490   5694704.233
10 0 59819  72942.000000  0   -4135682.343   1933352.255   5148271.794
10 0 59819  73062.000000  0   -4609317.216   2401334.607   4511242.818
10 0 59819  73182.000000  0   -4994495.815   2834860.013   3794798.999
10 0 59819  73302.000000  0   -5285143.900   3224735.502   3011532.299
10 0 59819  73422.000000  0   -5477001.281   3562442.189   2175224.668
10 0 59819  73542.000000  0   -5567689.398   3840322.157   1300603.620
10 0 59819  73662.000000  0   -5556740.919   4051750.234    403076.397
10 0 59819  73782.000000  0   -5445589.587   4191286.008   -501549.071
10 0 59819  73902.000000  0   -5237522.683   4254803.267  -1397351.042
10 0 59819  74022.000000  0   -4937595.777   4239593.454  -2268584.049
10 0 59819  74142.000000  0   -4552510.554   4144438.482  -3099964.165
10 0 59819  74262.000000  0   -4090461.291   3969652.662  -3876941.636
10 0 59819  74382.000000  0   -3560954.326   3717093.306  -4585955.790
10 0 59819  74502.000000  0   -2974605.885   3390140.913  -5214667.595
10 0 59819  74622.000000  0   -2342925.071   2993649.938  -5752166.198
10 0 59819  74742.000000  0   -1678085.266   2533872.414  -6189149.695
10 0 59819  74862.000000  0    -992687.659   2018354.156  -6518075.137
10 0 59819  74982.000000  0    -299524.098   1455808.173  -6733276.486
10 0 59819  75102.000000  0     388657.487    855967.099  -6831052.004
10 0 59819  75222.000000  0    1059381.246    229417.505  -6809721.621
10 0 59819  75342.000000  0    1700665.340   -412583.357  -6669653.393
10 0 59819  75462.000000  0    2301230.606  -1058305.029  -6413256.331
10 0 59819  75582.000000  0    2850694.913  -1695752.512  -6044943.908
10 0 59819  75702.000000  0    3339750.810  -2312883.324  -5571066.056
10 0 59819  75822.000000  0    3760325.081  -2897831.964  -4999812.209
10 0 59819  75942.000000  0    4105716.405  -3439138.484  -4341079.838
10 0 59819  76062.000000  0    4370706.017  -3925973.335  -3606312.644
10 0 59819  76182.000000  0    4551642.695  -4348356.411  -2808311.686
10 0 59819  76302.000000  0    4646499.018  -4697365.836  -1961018.268
10 0 59819  76422.000000  0    4654896.162  -4965331.025  -1079272.612
10 0 59819  76542.000000  0    4578095.105  -5146004.959   -178551.461
10 0 59819  76662.000000  0    4418954.238  -5234709.408    725309.143
10 0 59819  76782.000000  0    4181855.080  -5228450.468   1616400.055
10 0 59819  76902.000000  0    3872595.838  -5125999.524   2479028.824
10 0 59819  77022.000000  0    3498256.506  -4927938.869   3298003.687
10 0 59819  77142.000000  0    3067039.654  -4636670.898   4058908.408
10 0 59819  77262.000000  0    2588090.360  -4256389.544   4748360.550
10 0 59819  77382.000000  0    2071300.645  -3793015.917   5354248.599
10 0 59819  77502.000000  0    1527102.838  -3254100.301   5865943.707
10 0 59819  77622.000000  0     966256.184  -2648691.862   6274482.627
10 0 59819  77742.000000  0     399632.322  -1987181.021   6572718.454
10 0 59819  77862.000000  0    -161996.084  -1281117.302   6755438.821
10 0 59819  77982.000000  0    -708159.105   -543005.712   6819452.260
10 0 59819  78102.000000  0   -1228883.666    213916.060   6763640.513
10 0 59819  78222.000000  0   -1714875.097    975914.772   6588976.654
10 0 59819  78342.000000  0   -2157682.671   1729010.021   6298509.043
10 0 59819  78462.000000  0   -2549847.222   2459229.928   5897311.468
10 0 59819  78582.000000  0   -2885028.013   3152870.881   5392400.090
10 0 59819  78702.000000  0   -3158107.911   3796756.861   4792617.357
10 0 59819  78822.000000  0   -3365274.656   4378494.074   4108483.070
10 0 59819  78942.000000  0   -3504075.672   4886715.717   3352014.066
10 0 59819  79062.000000  0   -3573445.200   5311311.389   2536514.482
10 0 59819  79182.000000  0   -3573702.802   5643634.808   1676339.773
10 0 59819  79302.000000  0   -3506522.992   5876684.197    786640.104
10 0 59819  79422.000000  0   -3374877.668   6005253.797   -116911.981
10 0 59819  79542.000000  0   -3182951.282   6026050.216  -1018407.067
10 0 59819  79662.000000  0   -2936031.354   5937769.012  -1901989.556
10 0 59819  79782.000000  0   -2640374.977   5741129.141  -2752146.636
10 0 59819  79902.000000  0   -2303057.052   5438866.203  -3553984.600
10 0 59819  80022.000000  0   -1931806.477   5035687.742  -4293491.810
10 0 59819  80142.000000  0   -1534832.170   4538188.531  -4957781.486
10 0 59819  80262.000000  0   -1120645.102   3954732.383  -5535309.484
10 0 59819  80382.000000  0    -697878.981   3295303.032  -6016067.251
10 0 59819  80502.000000  0    -275112.985   2571325.255  -6391745.793
10 0 59819  80622.000000  0     139298.831   1795461.775  -6655866.967
10 0 59819  80742.000000  0     537387.670    981391.577  -6803884.647
10 0 59819  80862.000000  0     911719.064    143571.118  -6833255.113
10 0 59819  80982.000000  0    1255528.164   -703017.907  -6743475.724
10 0 59819  81102.000000  0    1562838.414  -1543130.455  -6536091.014
10 0 59819  81222.000000  0    1828562.943  -2361524.849  -6214668.803
10 0 59819  81342.000000  0    2048588.285  -3143232.674  -5784746.466
10 0 59819  81462.000000  0    2219838.440  -3873830.329  -5253746.963
10 0 59819  81582.000000  0    2340318.315  -4539706.774  -4630860.508
10 0 59819  81702.000000  0    2409135.010  -5128318.925  -3926895.662
10 0 59819  81822.000000  0    2426496.932  -5628433.993  -3154102.517
10 0 59819  81942.000000  0    2393690.343  -6030353.298  -2325967.033
10 0 59819  82062.000000  0    2313033.681  -6326111.525  -1456979.866
10 0 59819  82182.000000  0    2187809.054  -6509646.130   -562382.514
10 0 59819  82302.000000  0    2022174.222  -6576929.559    342105.642
10 0 59819  82422.000000  0    1821054.123  -6526061.479   1240569.638
10 0 59819  82542.000000  0    1590018.165  -6357321.063   2117187.815
10 0 59819  82662.000000  0    1335142.648  -6073172.105   2956520.889
10 0 59819  82782.000000  0    1062864.190  -5678224.615   3743790.898
10 0 59819  82902.000000  0     779827.655  -5179153.825   4465146.736
10 0 59819  83022.000000  0     492732.292  -4584579.683   5107910.322
10 0 59819  83142.000000  0     208179.168  -3904908.622   5660800.103
10 0 59819  83262.000000  0     -67474.659  -3152140.973   6114126.539
10 0 59819  83382.000000  0    -328253.185  -2339649.914   6459955.903
10 0 59819  83502.000000  0    -568687.099  -1481939.098   6692241.808
10 0 59819  83622.000000  0    -783925.319   -594381.708   6806925.761
10 0 59819  83742.000000  0    -969830.998    307056.570   6802004.812
10 0 59819  83862.000000  0   -1123060.382   1206105.108   6677564.306
10 0 59819  83982.000000  0   -1241122.497   2086481.469   6435776.191
10 0 59819  84102.000000  0   -1322419.561   2932185.814   6080863.586
10 0 59819  84222.000000  0   -1366267.901   3727792.552   5619031.472
10 0 59819  84342.000000  0   -1372898.047   4458734.312   5058363.805
10 0 59819  84462.000000  0   -1343434.634   5111574.264   4408688.712
10 0 59819  84582.000000  0   -1279856.446   5674261.237   3681410.413
10 0 59819  84702.000000  0   -1184936.794   6136360.288   2889312.072
10 0 59819  84822.000000  0   -1062167.990   6489257.284   2046332.143
10 0 59819  84942.000000  0    -915666.512   6726329.366   1167314.655
10 0 59819  85062.000000  0    -750063.969   6843075.645    267742.008
10 0 59819  85182.000000  0    -570386.547   6837207.423   -636544.810
10 0 59819  85302.000000  0    -381925.592   6708694.399  -1529635.354
10 0 59819  85422.000000  0    -190103.263   6459762.032  -2395839.830
10 0 59819  85542.000000  0       -337.434   6094843.456  -3219970.343
10 0 59819  85662.000000  0     182091.352   5620490.109  -3987609.950
10 0 59819  85782.000000  0     352168.502   5045242.228  -4685364.959
10 0 59819  85902.000000  0     505266.009   4379462.641  -5301095.039
10 0 59819  86022.000000  0     637252.394   3635138.949  -5824117.507
10 0 59819  86142.000000  0     744589.006   2825658.436  -6245383.265
10 0 59819  86262.000000  0     824411.277   1965561.346  -6557621.888
10 0 59819  86382.000000  0     874593.977   1070278.641  -6755455.308
10 0 59820    102.000000  0     893798.814    155857.608  -6835481.292
10 0 59820    222.000000  0     881504.510   -761321.022  -6796325.650
10 0 59820    342.000000  0     838018.148  -1664830.154  -6638661.790
10 0 59820    462.000000  0     764468.511  -2538481.699  -6365199.373
10 0 59820    582.000000  0     662781.667  -3366609.608  -5980645.219
10 0 59820    702.000000  0     535637.511  -4134349.047  -5491631.400
10 0 59820    822.000000  0     386409.662  -4827902.805  -4906610.519
10 0 59820    942.000000  0     219088.884  -5434792.844  -4235721.591
10 0 59820   1062.000000  0      38190.659  -5944092.954  -3490625.054
10 0 59820   1182.000000  0    -151350.873  -6346635.883  -2684308.095
10 0 59820   1302.000000  0    -344300.619  -6635190.923  -1830864.141
10 0 59820   1422.000000  0    -535249.407  -6804607.559   -945247.528
10 0 59820   1542.000000  0    -718746.923  -6851918.790    -43008.292
10 0 59820   1662.000000  0    -889437.459  -6776401.596    859986.491
10 0 59820   1782.000000  0   -1042195.290  -6579593.513   1747839.224
10 0 59820   1902.000000  0   -1172256.013  -6265263.518   2604911.121
10 0 59820   2022.000000  0   -1275340.050  -5839337.300   3416106.857
10 0 59820   2142.000000  0   -1347764.494  -5309778.719   4167148.097
10 0 59820   2262.000000  0   -1386541.482  -4686431.108   4844827.873
10 0 59820   2382.000000  0   -1389460.848  -3980825.714   5437243.491
10 0 59820   2502.000000  0   -1355155.349  -3205958.839   5934005.407
10 0 59820   2622.000000  0   -1283146.007  -2376042.219   6326414.843
10 0 59820   2742.000000  0   -1173866.808  -1506236.593   6607608.741
99
